CTC2_L_00394001-01
1 56309U 24737FU  26070.40847222  .00000000  00000+0  00000-0 0  9999
2 56309  40.0000   0.0000 0000000   0.0000   0.0000 12.77881384    19
CTC2_L_00394001-02
1 56310U 26938HJ  26070.40847222  .00000000  00000+0  00000-0 0  9996
2 56310  40.0000   0.0000 0000000   0.0000  90.0000 12.77881384    10
CTC2_L_00394001-03
1 56311U 26813HY  26070.40847222  .00000000  00000+0  00000-0 0  9999
2 56311  40.0000   0.0000 0000000   0.0000 180.0000 12.77881384    11
CTC2_L_00394001-04
1 56312U 23586OW  26070.40847222  .00000000  00000+0  00000-0 0  9994
2 56312  40.0000   0.0000 0000000   0.0000 270.0000 12.77881384    12
CTC2_L_00394002-01
1 56313U 24267BF  26070.40847222  .00000000  00000+0  00000-0 0  9992
2 56313  40.0000  12.0000 0000000   0.0000  12.0000 12.77881384    10
CTC2_L_00394002-02
1 56314U 25267ZG  26070.40847222  .00000000  00000+0  00000-0 0  9994
2 56314  40.0000  12.0000 0000000   0.0000 102.0000 12.77881384    11
CTC2_L_00394002-03
1 56315U 24253HR  26070.40847222  .00000000  00000+0  00000-0 0  9999
2 56315  40.0000  12.0000 0000000   0.0000 192.0000 12.77881384    11
CTC2_L_00394002-04
1 56316U 26779AH  26070.40847222  .00000000  00000+0  00000-0 0  9995
2 56316  40.0000  12.0000 0000000   0.0000 282.0000 12.77881384    12
CTC2_L_00394003-01
1 56317U 23747EU  26070.40847222  .00000000  00000+0  00000-0 0  9998
2 56317  40.0000  24.0000 0000000   0.0000  24.0000 12.77881384    10
CTC2_L_00394003-02
1 56318U 25987DG  26070.40847222  .00000000  00000+0  00000-0 0  9997
2 56318  40.0000  24.0000 0000000   0.0000 114.0000 12.77881384    11
CTC2_L_00394003-03
1 56319U 24054GT  26070.40847222  .00000000  00000+0  00000-0 0  9992
2 56319  40.0000  24.0000 0000000   0.0000 204.0000 12.77881384    12
CTC2_L_00394003-04
1 56320U 23887NE  26070.40847222  .00000000  00000+0  00000-0 0  9997
2 56320  40.0000  24.0000 0000000   0.0000 294.0000 12.77881384    13
CTC2_L_00394004-01
1 56321U 26123PE  26070.40847222  .00000000  00000+0  00000-0 0  9994
2 56321  40.0000  36.0000 0000000   0.0000  36.0000 12.77881384    11
CTC2_L_00394004-02
1 56322U 23595LN  26070.40847222  .00000000  00000+0  00000-0 0  9995
2 56322  40.0000  36.0000 0000000   0.0000 126.0000 12.77881384    12
CTC2_L_00394004-03
1 56323U 26053JH  26070.40847222  .00000000  00000+0  00000-0 0  9998
2 56323  40.0000  36.0000 0000000   0.0000 216.0000 12.77881384    13
CTC2_L_00394004-04
1 56324U 23380ZU  26070.40847222  .00000000  00000+0  00000-0 0  9999
2 56324  40.0000  36.0000 0000000   0.0000 306.0000 12.77881384    14
CTC2_L_00394005-01
1 56325U 22917J   26070.40847222  .00000000  00000+0  00000-0 0  9995
2 56325  40.0000  48.0000 0000000   0.0000  48.0000 12.77881384    11
CTC2_L_00394005-02
1 56326U 22751BR  26070.40847222  .00000000  00000+0  00000-0 0  9992
2 56326  40.0000  48.0000 0000000   0.0000 138.0000 12.77881384    12
CTC2_L_00394005-03
1 56327U 23094BU  26070.40847222  .00000000  00000+0  00000-0 0  9994
2 56327  40.0000  48.0000 0000000   0.0000 228.0000 12.77881384    13
CTC2_L_00394005-04
1 56328U 26069MH  26070.40847222  .00000000  00000+0  00000-0 0  9990
2 56328  40.0000  48.0000 0000000   0.0000 318.0000 12.77881384    14
CTC2_L_00394006-01
1 56329U 22851UM  26070.40847222  .00000000  00000+0  00000-0 0  9996
2 56329  40.0000  60.0000 0000000   0.0000  60.0000 12.77881384    13
CTC2_L_00394006-02
1 56330U 22021OM  26070.40847222  .00000000  00000+0  00000-0 0  9997
2 56330  40.0000  60.0000 0000000   0.0000 150.0000 12.77881384    15
CTC2_L_00394006-03
1 56331U 26920GO  26070.40847222  .00000000  00000+0  00000-0 0  9990
2 56331  40.0000  60.0000 0000000   0.0000 240.0000 12.77881384    16
CTC2_L_00394006-04
1 56332U 25690XH  26070.40847222  .00000000  00000+0  00000-0 0  9994
2 56332  40.0000  60.0000 0000000   0.0000 330.0000 12.77881384    17
CTC2_L_00394007-01
1 56333U 24179WA  26070.40847222  .00000000  00000+0  00000-0 0  9996
2 56333  40.0000  72.0000 0000000   0.0000  72.0000 12.77881384    14
CTC2_L_00394007-02
1 56334U 24909KU  26070.40847222  .00000000  00000+0  00000-0 0  9998
2 56334  40.0000  72.0000 0000000   0.0000 162.0000 12.77881384    15
CTC2_L_00394007-03
1 56335U 23581HD  26070.40847222  .00000000  00000+0  00000-0 0  9994
2 56335  40.0000  72.0000 0000000   0.0000 252.0000 12.77881384    16
CTC2_L_00394007-04
1 56336U 25614ZG  26070.40847222  .00000000  00000+0  00000-0 0  9994
2 56336  40.0000  72.0000 0000000   0.0000 342.0000 12.77881384    17
CTC2_L_00394008-01
1 56337U 25587DY  26070.40847222  .00000000  00000+0  00000-0 0  9994
2 56337  40.0000  84.0000 0000000   0.0000  84.0000 12.77881384    14
CTC2_L_00394008-02
1 56338U 24336VS  26070.40847222  .00000000  00000+0  00000-0 0  9996
2 56338  40.0000  84.0000 0000000   0.0000 174.0000 12.77881384    15
CTC2_L_00394008-03
1 56339U 24510JH  26070.40847222  .00000000  00000+0  00000-0 0  9991
2 56339  40.0000  84.0000 0000000   0.0000 264.0000 12.77881384    16
CTC2_L_00394008-04
1 56340U 23793RH  26070.40847222  .00000000  00000+0  00000-0 0  9995
2 56340  40.0000  84.0000 0000000   0.0000 354.0000 12.77881384    18
CTC2_L_00394009-01
1 56341U 23602R   26070.40847222  .00000000  00000+0  00000-0 0  9995
2 56341  40.0000  96.0000 0000000   0.0000  96.0000 12.77881384    15
CTC2_L_00394009-02
1 56342U 23992PR  26070.40847222  .00000000  00000+0  00000-0 0  9998
2 56342  40.0000  96.0000 0000000   0.0000 186.0000 12.77881384    16
CTC2_L_00394009-03
1 56343U 24214TZ  26070.40847222  .00000000  00000+0  00000-0 0  9997
2 56343  40.0000  96.0000 0000000   0.0000 276.0000 12.77881384    17
CTC2_L_00394009-04
1 56344U 22529XE  26070.40847222  .00000000  00000+0  00000-0 0  9995
2 56344  40.0000  96.0000 0000000   0.0000   6.0000 12.77881384    19
CTC2_L_00394010-01
1 56345U 23951QH  26070.40847222  .00000000  00000+0  00000-0 0  9996
2 56345  40.0000 108.0000 0000000   0.0000 108.0000 12.77881384    17
CTC2_L_00394010-02
1 56346U 26894DJ  26070.40847222  .00000000  00000+0  00000-0 0  9996
2 56346  40.0000 108.0000 0000000   0.0000 198.0000 12.77881384    17
CTC2_L_00394010-03
1 56347U 26241SX  26070.40847222  .00000000  00000+0  00000-0 0  9993
2 56347  40.0000 108.0000 0000000   0.0000 288.0000 12.77881384    18
CTC2_L_00394010-04
1 56348U 25926RY  26070.40847222  .00000000  00000+0  00000-0 0  9993
2 56348  40.0000 108.0000 0000000   0.0000  18.0000 12.77881384    10
CTC2_L_00394011-01
1 56349U 22639PI  26070.40847222  .00000000  00000+0  00000-0 0  9992
2 56349  40.0000 120.0000 0000000   0.0000 120.0000 12.77881384    19
CTC2_L_00394011-02
1 56350U 24465JL  26070.40847222  .00000000  00000+0  00000-0 0  9993
2 56350  40.0000 120.0000 0000000   0.0000 210.0000 12.77881384    11
CTC2_L_00394011-03
1 56351U 22054FT  26070.40847222  .00000000  00000+0  00000-0 0  9996
2 56351  40.0000 120.0000 0000000   0.0000 300.0000 12.77881384    12
CTC2_L_00394011-04
1 56352U 24281SL  26070.40847222  .00000000  00000+0  00000-0 0  9991
2 56352  40.0000 120.0000 0000000   0.0000  30.0000 12.77881384    13
CTC2_L_00394012-01
1 56353U 24404QF  26070.40847222  .00000000  00000+0  00000-0 0  9999
2 56353  40.0000 132.0000 0000000   0.0000 132.0000 12.77881384    10
CTC2_L_00394012-02
1 56354U 22170KY  26070.40847222  .00000000  00000+0  00000-0 0  9998
2 56354  40.0000 132.0000 0000000   0.0000 222.0000 12.77881384    11
CTC2_L_00394012-03
1 56355U 25288BI  26070.40847222  .00000000  00000+0  00000-0 0  9992
2 56355  40.0000 132.0000 0000000   0.0000 312.0000 12.77881384    12
CTC2_L_00394012-04
1 56356U 23831PM  26070.40847222  .00000000  00000+0  00000-0 0  9995
2 56356  40.0000 132.0000 0000000   0.0000  42.0000 12.77881384    13
CTC2_L_00394013-01
1 56357U 22313YT  26070.40847222  .00000000  00000+0  00000-0 0  9990
2 56357  40.0000 144.0000 0000000   0.0000 144.0000 12.77881384    10
CTC2_L_00394013-02
1 56358U 23631PM  26070.40847222  .00000000  00000+0  00000-0 0  9995
2 56358  40.0000 144.0000 0000000   0.0000 234.0000 12.77881384    11
CTC2_L_00394013-03
1 56359U 25244QM  26070.40847222  .00000000  00000+0  00000-0 0  9998
2 56359  40.0000 144.0000 0000000   0.0000 324.0000 12.77881384    12
CTC2_L_00394013-04
1 56360U 25731LW  26070.40847222  .00000000  00000+0  00000-0 0  9991
2 56360  40.0000 144.0000 0000000   0.0000  54.0000 12.77881384    14
CTC2_L_00394014-01
1 56361U 23060EI  26070.40847222  .00000000  00000+0  00000-0 0  9995
2 56361  40.0000 156.0000 0000000   0.0000 156.0000 12.77881384    11
CTC2_L_00394014-02
1 56362U 23134RL  26070.40847222  .00000000  00000+0  00000-0 0  9998
2 56362  40.0000 156.0000 0000000   0.0000 246.0000 12.77881384    12
CTC2_L_00394014-03
1 56363U 26315CN  26070.40847222  .00000000  00000+0  00000-0 0  9993
2 56363  40.0000 156.0000 0000000   0.0000 336.0000 12.77881384    13
CTC2_L_00394014-04
1 56364U 25330BM  26070.40847222  .00000000  00000+0  00000-0 0  9990
2 56364  40.0000 156.0000 0000000   0.0000  66.0000 12.77881384    14
CTC2_L_00394015-01
1 56365U 26508QZ  26070.40847222  .00000000  00000+0  00000-0 0  9999
2 56365  40.0000 168.0000 0000000   0.0000 168.0000 12.77881384    11
CTC2_L_00394015-02
1 56366U 24902LR  26070.40847222  .00000000  00000+0  00000-0 0  9996
2 56366  40.0000 168.0000 0000000   0.0000 258.0000 12.77881384    12
CTC2_L_00394015-03
1 56367U 23506RL  26070.40847222  .00000000  00000+0  00000-0 0  9996
2 56367  40.0000 168.0000 0000000   0.0000 348.0000 12.77881384    13
CTC2_L_00394015-04
1 56368U 26558JF  26070.40847222  .00000000  00000+0  00000-0 0  9997
2 56368  40.0000 168.0000 0000000   0.0000  78.0000 12.77881384    14
CTC2_L_00394016-01
1 56369U 24738ZO  26070.40847222  .00000000  00000+0  00000-0 0  9996
2 56369  40.0000 180.0000 0000000   0.0000 180.0000 12.77881384    13
CTC2_L_00394016-02
1 56370U 24656MW  26070.40847222  .00000000  00000+0  00000-0 0  9997
2 56370  40.0000 180.0000 0000000   0.0000 270.0000 12.77881384    15
